
PLEIADES 1B             
1 39019U 12068A   24362.13470888  .00001170  00000+0  26159-3 0  9999
2 39019  98.1788  73.8054 0001246  88.6107 271.5235 14.58547025642564
EUTELSAT 70B            
1 39020U 12069A   24362.11488010 -.00000014  00000+0  00000+0 0  9996
2 39020   0.0608 354.6370 0004053 261.5562 311.7643  1.00271257 44229
YAMAL 402               
1 39022U 12070A   24361.90743880  .00000114  00000+0  00000+0 0  9995
2 39022   0.0313 265.0107 0004637  14.9725 197.4904  1.00273692 44017
GOKTURK 2               
1 39030U 12073A   24362.12636542  .00001598  00000+0  24700-3 0  9992
2 39030  97.7263 214.3841 0000831  72.5074 287.6226 14.74590730645368
SKYNET 5D               
1 39034U 12075A   24361.90743880  .00000128  00000+0  00000+0 0  9998
2 39034   0.0678 349.6000 0003757 284.3243 201.4157  1.00273759 43777
MEXSAT 3                
1 39035U 12075B   24360.93502117  .00000003  00000+0  00000+0 0  9999
2 39035   0.0184  33.0209 0001789 228.4765  55.2310  1.00271974  1650
COSMOS 2482             
1 39057U 13001A   24361.84452567  .00000067  00000+0  40717-3 0  9990
2 39057  82.4974 194.6594 0028022 116.4061 243.9900 12.42971919541957
COSMOS 2483             
1 39058U 13001B   24361.88354882  .00000054  00000+0  31031-3 0  9991
2 39058  82.4986 189.7793 0017190 106.5646 253.7324 12.44006159534789
COSMOS 2484             
1 39059U 13001C   24361.92604206  .00000047  00000+0  26656-3 0  9994
2 39059  82.5008 195.9536 0026722 124.9478 235.4117 12.42912886541818
TDRS 11                 
1 39070U 13004A   24362.15287257  .00000105  00000+0  00000+0 0  9995
2 39070   2.8715  18.2445 0001730  18.7728 299.7468  1.00268103 43601
GLOBALSTAR M097         
1 39072U 13005A   24361.66141005 -.00000115  00000+0 -62031-4 0  9993
2 39072  52.0055  79.6198 0000533 141.0580 219.0325 12.62268197549026
GLOBALSTAR M093         
1 39073U 13005B   24361.55512755 -.00000097  00000+0  38356-4 0  9997
2 39073  51.9821  73.5175 0000595 151.7822 208.3077 12.62277526548962
GLOBALSTAR M094         
1 39074U 13005C   24361.71396704 -.00000092  00000+0  65020-4 0  9993
2 39074  51.9980 347.2470 0000023 298.1039  61.9826 12.62266417550594
GLOBALSTAR M096         
1 39075U 13005D   24361.64799260 -.00000088  00000+0  90350-4 0  9999
2 39075  52.0090  35.8277 0000408 169.2388 190.8488 12.62266077549503
GLOBALSTAR M078         
1 39076U 13005E   24361.77938923 -.00000097  00000+0  38176-4 0  9993
2 39076  51.9864 120.1673 0001606 137.3306 222.7685 12.62267903548148
GLOBALSTAR M095         
1 39077U 13005F   24361.72700725 -.00000101  00000+0  17755-4 0  9992
2 39077  51.9792 117.6120 0001183 144.2734 215.8212 12.62269853547996
AMAZONAS 3              
1 39078U 13006A   24361.30295737 -.00000253  00000+0  00000+0 0  9998
2 39078   0.0500 237.6854 0004059  14.0946 251.5719  1.00269952 39524
AZERSPACE 1             
1 39079U 13006B   24361.89059905  .00000162  00000+0  00000+0 0  9996
2 39079   0.0134 311.4026 0001633 359.1263 151.9641  1.00274571 43424
LANDSAT 8               
1 39084U 13008A   24362.16695251  .00001110  00000+0  25638-3 0  9997
2 39084  98.2090  69.2298 0001204  88.5321 271.6016 14.57118479631510
SARAL                   
1 39086U 13009A   24362.13800103  .00000411  00000+0  16746-3 0  9994
2 39086  98.5482 184.6412 0002938  80.3925 279.7590 14.32616771618708
SAPPHIRE                
1 39088U 13009C   24361.96143629  .00000488  00000+0  18636-3 0  9993
2 39088  98.4076 183.7370 0012152  52.3556 307.8730 14.34934749619541
NEOSSAT                 
1 39089U 13009D   24361.58830162  .00000654  00000+0  24213-3 0  9990
2 39089  98.4007 183.9510 0011964  52.5443 307.6829 14.35445341619601
STRAND-1                
1 39090U 13009E   24361.75779221  .00001101  00000+0  38927-3 0  9994
2 39090  98.3766 184.8135 0009507  42.6106 317.5816 14.36539667619885
BRITE-AUSTRIA           
1 39091U 13009F   24361.77921513  .00000718  00000+0  26111-3 0  9995
2 39091  98.3817 184.1070 0011135  49.0754 311.1395 14.36122621619907
SBIRS GEO-2 (USA 241)   
1 39120U 13011A   24361.87919549 -.00000231  00000+0  00000+0 0  9994
2 39120   3.3576  49.8619 0002492 224.1918 100.3050  1.00271203 43149
EUTELSAT 117 WEST A     
1 39122U 13012A   24361.67896826  .00000016  00000+0  00000+0 0  9997
2 39122   0.0254  50.2979 0002897 232.3632 300.6368  1.00273044 43047
ANIK G1                 
1 39127U 13014A   24361.75188192 -.00000045  00000+0  00000+0 0  9996
2 39127   0.0158 300.5897 0003395 338.6922 339.8215  1.00271915 42860
GAOFEN-1                
1 39150U 13018A   24362.13617761  .00002168  00000+0  31790-3 0  9999
2 39150  97.9709  72.2376 0018450 195.1013 164.9648 14.76491085629039
NEE-01 PEGASO           
1 39151U 13018B   24362.11295853  .00007184  00000+0  77188-3 0  9996
2 39151  98.0532 121.7523 0014880 127.3146 232.9429 14.88789208630650
COSMOS 2485 [GLONASS-M] 
1 39155U 13019A   24359.26469859 -.00000032  00000+0  00000+0 0  9993
2 39155  65.1300  91.7664 0024295 230.6054 129.1943  2.13104390 90770
ZHONGXING-11            
1 39157U 13020A   24361.83283480 -.00000262  00000+0  00000+0 0  9992
2 39157   0.0416  86.2358 0005256 217.6296 189.6836  1.00271386 42512
PROBA-V                 
1 39159U 13021A   24361.97221486  .00000284  00000+0  14316-3 0  9990
2 39159  98.3124 357.8034 0003000 266.1439  93.9397 14.23404219604684
VNREDSAT 1              
1 39160U 13021B   24362.13468996  .00001842  00000+0  35686-3 0  9994
2 39160  97.9748  63.1058 0001398  83.8329 276.3033 14.64432307621683
ESTCUBE 1               
1 39161U 13021C   24362.16664162  .00004813  00000+0  66636-3 0  9991
2 39161  97.8066  62.7674 0007938 332.4676  27.6114 14.78451210625623
EUTELSAT 7B             
1 39163U 13022A   24361.88814418  .00000077  00000+0  00000+0 0  9990
2 39163   0.0650   9.2749 0004749 316.3634  96.9463  1.00272486 42571
NAVSTAR 68 (USA 242)    
1 39166U 13023A   24361.71483525 -.00000056  00000+0  00000+0 0  9995
2 39166  54.9467 290.8081 0129333  45.4372 315.6245  2.00562296 85108
WGS F5 (USA 243)        
1 39168U 13024A   24361.51876875 -.00000256  00000+0  00000+0 0  9992
2 39168   0.0225  18.7419 0000133  24.3493 186.6656  1.00270770 42435
SES-6                   
1 39172U 13026A   24361.66420681 -.00000232  00000+0  00000+0 0  9999
2 39172   0.0305 316.2530 0002156 315.6163  22.3889  1.00271215 42334
COSMOS 2486             
1 39177U 13028A   24362.15569746  .00000756  00000+0  18249-3 0  9995
2 39177  97.9454 341.9262 0009686 247.6871 112.3301 14.55719145613236
O3B FM5                 
1 39188U 13031A   24361.77214403 -.00000012  00000+0  00000+0 0  9993
2 39188   0.0617 347.9224 0002670 291.8062  80.2428  5.00115208210154
O3B FM4                 
1 39189U 13031B   24361.62776036 -.00000012  00000+0  00000+0 0  9993
2 39189   0.0380   5.4033 0002641 273.3546  81.2138  5.00115146210167
O3B FM2                 
1 39190U 13031C   24360.32027861 -.00000014  00000+0  00000+0 0  9998
2 39190   0.0336   9.2801 0002651 267.3460  83.3450  5.00115708210146
O3B PFM                 
1 39191U 13031D   24360.34566717 -.00000014  00000+0  00000+0 0  9999
2 39191   0.0545 353.3125 0002721 282.0315  84.6263  5.00115115209700
IRIS                    
1 39197U 13033A   24361.76775359  .00004915  00000+0  60004-3 0  9995
2 39197  97.9542 191.5533 0024267 274.9882  84.8561 14.83562914620626
IRNSS-1A                
1 39199U 13034A   24341.83271314  .00000080  00000+0  00000+0 0  9991
2 39199  34.4702  71.9275 0022408 185.2473 174.0381  1.00281504 41774
SJ-11-05                
1 39202U 13035A   24362.13186947  .00002156  00000+0  42378-3 0  9994
2 39202  98.2600 173.1088 0011682 115.4020 244.8392 14.63623807610630
MUOS-2                  
1 39206U 13036A   24361.64899135  .00000090  00000+0  00000+0 0  9991
2 39206   3.9618  42.8370 0055359 183.1314 286.2899  1.00273379 41800
SHIYAN 7 (SY-7)         
1 39208U 13037A   24361.94961176  .00002193  00000+0  36490-3 0  9994
2 39208  98.0727 357.6944 0009309  63.2273 296.9885 14.71061417613187
CHUANGXIN-3 (CX-3)      
1 39209U 13037B   24361.96092210  .00003175  00000+0  50605-3 0  9996
2 39209  98.0722 359.2382 0005516  60.3949 299.7807 14.72651161613223
SHIJIAN-15 (SJ-15)      
1 39210U 13037C   24362.11601224  .00001377  00000+0  23607-3 0  9991
2 39210  98.0878 357.3008 0007510  62.2063 297.9904 14.70324676615377
ALPHASAT                
1 39215U 13038A   24362.16160642  .00000161  00000+0  00000+0 0  9994
2 39215   2.9136   5.8852 0001841 264.3171 268.9716  1.00270947 41889
INSAT-3D                
1 39216U 13038B   24361.84096803 -.00000311  00000+0  00000+0 0  9994
2 39216   0.5339  90.1945 0001601 170.7274 267.1668  1.00270607 41696
WGS F6 (USA 244)        
1 39222U 13041A   24362.00280420  .00000118  00000+0  00000+0 0  9998
2 39222   0.0248  10.4683 0000223 204.5650 106.7577  1.00270462 41678
ARIRANG-5 (KOMPSAT-5)   
1 39227U 13042A   24362.11099955  .00004470  00000+0  32342-3 0  9990
2 39227  97.6161 185.3166 0003675 138.1289 222.0219 15.04516724623169
ES'HAIL 1               
1 39233U 13044A   24362.10610516  .00000173  00000+0  00000+0 0  9998
2 39233   0.0486  14.3985 0002105 273.8440 231.5262  1.00273225 41510
GSAT-7                  
1 39234U 13044B   24361.41924432 -.00000049  00000+0  00000+0 0  9990
2 39234   0.1036  94.3667 0009999 175.2520  50.7220  1.00272138 39862
AMOS-4                  
1 39237U 13045A   24361.89632705  .00000036  00000+0  00000+0 0  9990
2 39237   0.0362  75.3966 0002968 229.2020 178.9266  1.00272763 41579
YAOGAN-17 01A           
1 39239U 13046A   24361.86648017  .00000049  00000+0  15257-3 0  9991
2 39239  63.3923  35.4786 0378626   9.4714 351.3196 13.45399853555995
